{"type":"Feature","properties":{"nom":"Paris 15e Arrondissement","code":"75115","codeDepartement":"75","codeRegion":"11","codesPostaux":["75015"],"population":229713},"geometry":{"type":"Polygon","coordinates":[[[2.289408,48.828334],[2.286694,48.829452],[2.284719,48.830291],[2.283586,48.830796],[2.282671,48.831153],[2.279945,48.832141],[2.279052,48.83249],[2.278827,48.832293],[2.276297,48.830232],[2.275304,48.829435],[2.275276,48.829446],[2.272928,48.828039],[2.272793,48.82792],[2.267826,48.827836],[2.267626,48.827969],[2.267339,48.831532],[2.269645,48.832857],[2.269931,48.833011],[2.268102,48.834428],[2.267789,48.834585],[2.267475,48.834593],[2.262792,48.833923],[2.263558,48.83464],[2.265076,48.835968],[2.266032,48.836838],[2.26674,48.837565],[2.268291,48.839213],[2.271225,48.842299],[2.27191,48.842993],[2.273994,48.845176],[2.274473,48.845655],[2.275464,48.846704],[2.276057,48.847248],[2.277029,48.848109],[2.278021,48.848888],[2.279575,48.849938],[2.280569,48.850626],[2.281217,48.851101],[2.282845,48.852244],[2.287311,48.855389],[2.287837,48.855764],[2.288074,48.855957],[2.288207,48.856134],[2.288379,48.856755],[2.288513,48.857021],[2.288954,48.85749],[2.289696,48.858183],[2.29042,48.857827],[2.290943,48.857541],[2.291928,48.856924],[2.292936,48.856265],[2.295381,48.854707],[2.295785,48.854455],[2.296958,48.853702],[2.297376,48.853424],[2.299301,48.852194],[2.300546,48.851385],[2.300912,48.851176],[2.301228,48.851062],[2.302064,48.850524],[2.305863,48.848094],[2.307354,48.847133],[2.308218,48.847433],[2.308798,48.847579],[2.310495,48.847976],[2.313716,48.845943],[2.315361,48.846464],[2.316713,48.846863],[2.316983,48.846636],[2.319142,48.845519],[2.319893,48.845166],[2.320553,48.844967],[2.322905,48.844184],[2.324642,48.843621],[2.324244,48.843262],[2.3241,48.843157],[2.322746,48.842065],[2.322509,48.841856],[2.321871,48.841364],[2.321531,48.841084],[2.321472,48.840965],[2.321837,48.840099],[2.321394,48.839777],[2.319877,48.840539],[2.318641,48.839478],[2.317998,48.838934],[2.316694,48.837874],[2.314831,48.836303],[2.313023,48.834952],[2.311855,48.834024],[2.310569,48.832977],[2.309585,48.832185],[2.307135,48.830178],[2.306932,48.829823],[2.305996,48.82906],[2.305096,48.828277],[2.303983,48.827362],[2.301315,48.825126],[2.300177,48.825375],[2.292192,48.827142],[2.290235,48.827989],[2.289408,48.828334]]]}}