{"type":"Feature","properties":{"nom":"Paris 2e Arrondissement","code":"75102","codeDepartement":"75","codeRegion":"11","codesPostaux":["75002"],"population":19847},"geometry":{"type":"Polygon","coordinates":[[[2.347918,48.870688],[2.349099,48.870448],[2.352048,48.869822],[2.354253,48.869324],[2.353723,48.86838],[2.353306,48.867619],[2.352971,48.867032],[2.352534,48.866235],[2.351965,48.865246],[2.351363,48.864164],[2.350955,48.863402],[2.349999,48.863632],[2.349018,48.863859],[2.346683,48.864422],[2.344975,48.864825],[2.343083,48.865285],[2.34256,48.865403],[2.340887,48.865823],[2.339763,48.866075],[2.33738,48.866645],[2.335874,48.866979],[2.333661,48.867507],[2.331727,48.867953],[2.331053,48.868101],[2.330426,48.86826],[2.330107,48.868409],[2.329411,48.868902],[2.328251,48.869752],[2.327999,48.869921],[2.329007,48.87009],[2.329973,48.870265],[2.332079,48.870626],[2.332522,48.870692],[2.334763,48.871071],[2.335927,48.871286],[2.338312,48.871692],[2.340041,48.871972],[2.341876,48.871679],[2.347029,48.870826],[2.347918,48.870688]]]}}