{"type":"Feature","properties":{"nom":"Paris 14e Arrondissement","code":"75114","codeDepartement":"75","codeRegion":"11","codesPostaux":["75014"],"population":136455},"geometry":{"type":"Polygon","coordinates":[[[2.336657,48.839671],[2.338336,48.839221],[2.339695,48.838864],[2.340065,48.838779],[2.342086,48.838343],[2.341666,48.835345],[2.341586,48.834818],[2.341264,48.833093],[2.341175,48.832658],[2.341105,48.832024],[2.341072,48.831972],[2.34125,48.831589],[2.341241,48.831244],[2.341258,48.83059],[2.341356,48.829424],[2.341504,48.828817],[2.3416,48.828353],[2.341641,48.827683],[2.341592,48.82649],[2.341796,48.826448],[2.341709,48.82619],[2.341584,48.825299],[2.341601,48.82514],[2.341458,48.823845],[2.341489,48.823583],[2.341652,48.823032],[2.34173,48.822688],[2.341797,48.82253],[2.342047,48.822109],[2.342485,48.821469],[2.342653,48.821308],[2.342953,48.82107],[2.343645,48.820573],[2.34381,48.820425],[2.344342,48.819818],[2.344592,48.819564],[2.344553,48.819245],[2.344302,48.818465],[2.344129,48.817772],[2.344039,48.817006],[2.343965,48.816187],[2.343903,48.815767],[2.343157,48.816045],[2.342877,48.816116],[2.342186,48.81625],[2.341684,48.81633],[2.340512,48.816372],[2.339543,48.816436],[2.338007,48.816515],[2.335581,48.816655],[2.333711,48.816771],[2.331898,48.817011],[2.332461,48.818247],[2.330414,48.818704],[2.325562,48.819774],[2.321661,48.820629],[2.320597,48.820867],[2.314146,48.822291],[2.306959,48.823868],[2.303185,48.824727],[2.301866,48.825002],[2.301315,48.825126],[2.303983,48.827362],[2.305096,48.828277],[2.305996,48.82906],[2.306932,48.829823],[2.307135,48.830178],[2.309585,48.832185],[2.310569,48.832977],[2.311855,48.834024],[2.313023,48.834952],[2.314831,48.836303],[2.316694,48.837874],[2.317998,48.838934],[2.318641,48.839478],[2.319877,48.840539],[2.321394,48.839777],[2.321837,48.840099],[2.321472,48.840965],[2.321531,48.841084],[2.321871,48.841364],[2.322509,48.841856],[2.322746,48.842065],[2.3241,48.843157],[2.324244,48.843262],[2.324642,48.843621],[2.326385,48.843065],[2.327459,48.842704],[2.328673,48.842308],[2.329575,48.841994],[2.331328,48.841408],[2.334312,48.840432],[2.335565,48.840014],[2.336657,48.839671]]]}}