{"type":"Feature","properties":{"nom":"Paris 17e Arrondissement","code":"75117","codeDepartement":"75","codeRegion":"11","codesPostaux":["75017"],"population":159212},"geometry":{"type":"Polygon","coordinates":[[[2.303774,48.894154],[2.305715,48.89509],[2.307687,48.89601],[2.310673,48.897131],[2.312319,48.897725],[2.312451,48.897782],[2.31852,48.899638],[2.319887,48.90046],[2.320434,48.900776],[2.322073,48.900828],[2.322174,48.900794],[2.32327,48.900813],[2.325836,48.900954],[2.326534,48.900977],[2.330147,48.901044],[2.329852,48.900199],[2.329467,48.899023],[2.329146,48.898098],[2.328518,48.896189],[2.328255,48.895448],[2.326963,48.891608],[2.326583,48.890441],[2.326284,48.889575],[2.325898,48.888377],[2.325596,48.887508],[2.325607,48.887453],[2.325933,48.886744],[2.32601,48.886606],[2.326573,48.885368],[2.327278,48.883856],[2.327423,48.883508],[2.327165,48.883455],[2.321028,48.882215],[2.318769,48.881757],[2.31648,48.881341],[2.315575,48.881205],[2.314143,48.881034],[2.312551,48.880851],[2.3122,48.880805],[2.310181,48.880567],[2.309834,48.88052],[2.309287,48.880491],[2.308875,48.880434],[2.308613,48.880341],[2.307121,48.880007],[2.304992,48.879546],[2.300977,48.878688],[2.298155,48.878077],[2.296024,48.875133],[2.295557,48.874513],[2.295032,48.873773],[2.294249,48.874036],[2.292999,48.874427],[2.290454,48.875231],[2.28451,48.877122],[2.282006,48.877916],[2.279949,48.878573],[2.280536,48.881107],[2.280632,48.8816],[2.280897,48.882792],[2.281014,48.882971],[2.284538,48.885574],[2.28446,48.885639],[2.285642,48.886555],[2.290529,48.888956],[2.291148,48.889302],[2.291634,48.889456],[2.292941,48.889619],[2.294041,48.889744],[2.295013,48.889875],[2.295475,48.890096],[2.297327,48.891054],[2.29811,48.891444],[2.298628,48.891717],[2.300588,48.892629],[2.301836,48.89324],[2.303319,48.893934],[2.303774,48.894154]]]}}