{"type":"Feature","properties":{"nom":"Paris 8e Arrondissement","code":"75108","codeDepartement":"75","codeRegion":"11","codesPostaux":["75008"],"population":35317},"geometry":{"type":"Polygon","coordinates":[[[2.301737,48.863496],[2.301635,48.864491],[2.300298,48.865008],[2.299842,48.864987],[2.299856,48.865261],[2.299838,48.865537],[2.299254,48.867454],[2.298867,48.868644],[2.297501,48.870939],[2.297217,48.871292],[2.29635,48.872324],[2.295543,48.873303],[2.295032,48.873773],[2.295557,48.874513],[2.296024,48.875133],[2.298155,48.878077],[2.300977,48.878688],[2.304992,48.879546],[2.307121,48.880007],[2.308613,48.880341],[2.308875,48.880434],[2.309287,48.880491],[2.309834,48.88052],[2.310181,48.880567],[2.3122,48.880805],[2.312551,48.880851],[2.314143,48.881034],[2.315575,48.881205],[2.31648,48.881341],[2.318769,48.881757],[2.321028,48.882215],[2.327165,48.883455],[2.327061,48.880801],[2.327055,48.880438],[2.327009,48.879651],[2.326981,48.878716],[2.326964,48.877848],[2.326914,48.877112],[2.326876,48.876184],[2.326852,48.875873],[2.326666,48.875544],[2.326637,48.875355],[2.326746,48.874827],[2.326937,48.874179],[2.327025,48.873781],[2.326911,48.873427],[2.32647,48.872762],[2.326608,48.872697],[2.326614,48.872598],[2.326089,48.870563],[2.325971,48.870089],[2.325888,48.869577],[2.325374,48.869485],[2.325166,48.869417],[2.325319,48.869012],[2.324584,48.867949],[2.323549,48.866473],[2.322582,48.865188],[2.322366,48.864923],[2.321594,48.863924],[2.320933,48.863019],[2.318678,48.863723],[2.315447,48.863718],[2.312376,48.863629],[2.302333,48.863526],[2.301737,48.863496]]]}}