{"type":"Feature","properties":{"nom":"Paris 6e Arrondissement","code":"75106","codeDepartement":"75","codeRegion":"11","codesPostaux":["75006"],"population":40389},"geometry":{"type":"Polygon","coordinates":[[[2.332916,48.859335],[2.334832,48.858947],[2.336388,48.858625],[2.337672,48.858311],[2.338802,48.857661],[2.340567,48.856675],[2.341368,48.856128],[2.341758,48.855733],[2.342506,48.855104],[2.34293,48.854833],[2.34411,48.854283],[2.344634,48.854089],[2.344281,48.853757],[2.343188,48.851389],[2.342777,48.850637],[2.342632,48.850348],[2.341463,48.848379],[2.340482,48.84671],[2.340252,48.846289],[2.338983,48.843924],[2.338668,48.843363],[2.3382,48.842505],[2.337756,48.841755],[2.337256,48.840875],[2.337079,48.840783],[2.336771,48.840746],[2.33672,48.840107],[2.336657,48.839671],[2.335565,48.840014],[2.334312,48.840432],[2.331328,48.841408],[2.329575,48.841994],[2.328673,48.842308],[2.327459,48.842704],[2.326385,48.843065],[2.324642,48.843621],[2.322905,48.844184],[2.320553,48.844967],[2.319893,48.845166],[2.319142,48.845519],[2.316983,48.846636],[2.316713,48.846863],[2.317186,48.847018],[2.318203,48.847395],[2.319421,48.847858],[2.320191,48.848235],[2.321899,48.849126],[2.322945,48.849659],[2.324162,48.850235],[2.32462,48.850417],[2.326877,48.851362],[2.326814,48.851581],[2.327274,48.851664],[2.328657,48.851868],[2.328659,48.852056],[2.329336,48.852639],[2.329876,48.853538],[2.330464,48.854473],[2.330733,48.855056],[2.331348,48.8559],[2.331667,48.856315],[2.332276,48.857044],[2.33327,48.858291],[2.332452,48.858531],[2.332916,48.859335]]]}}