{"type":"Feature","properties":{"nom":"Paris 1er Arrondissement","code":"75101","codeDepartement":"75","codeRegion":"11","codesPostaux":["75001"],"population":15114},"geometry":{"type":"Polygon","coordinates":[[[2.325888,48.869577],[2.327999,48.869921],[2.328251,48.869752],[2.329411,48.868902],[2.330107,48.868409],[2.330426,48.86826],[2.331053,48.868101],[2.331727,48.867953],[2.333661,48.867507],[2.335874,48.866979],[2.33738,48.866645],[2.339763,48.866075],[2.340887,48.865823],[2.34256,48.865403],[2.343083,48.865285],[2.344975,48.864825],[2.346683,48.864422],[2.349018,48.863859],[2.349999,48.863632],[2.350955,48.863402],[2.350697,48.862925],[2.350164,48.861985],[2.34909,48.860076],[2.347851,48.857849],[2.347574,48.857359],[2.347329,48.857181],[2.347115,48.857241],[2.346476,48.85619],[2.346051,48.855535],[2.345837,48.855257],[2.344843,48.854281],[2.344634,48.854089],[2.34411,48.854283],[2.34293,48.854833],[2.342506,48.855104],[2.341758,48.855733],[2.341368,48.856128],[2.340567,48.856675],[2.338802,48.857661],[2.337672,48.858311],[2.336388,48.858625],[2.334832,48.858947],[2.332916,48.859335],[2.331212,48.859679],[2.32798,48.860821],[2.320933,48.863019],[2.321594,48.863924],[2.322366,48.864923],[2.322582,48.865188],[2.323549,48.866473],[2.324584,48.867949],[2.325319,48.869012],[2.325166,48.869417],[2.325374,48.869485],[2.325888,48.869577]]]}}