{"type":"Feature","properties":{"nom":"Paris 11e Arrondissement","code":"75111","codeDepartement":"75","codeRegion":"11","codesPostaux":["75011"],"population":138170},"geometry":{"type":"Polygon","coordinates":[[[2.369124,48.853166],[2.368922,48.854041],[2.368491,48.855805],[2.368229,48.856943],[2.368062,48.857603],[2.367252,48.860991],[2.366889,48.862473],[2.366748,48.863076],[2.366686,48.863203],[2.365198,48.865653],[2.36489,48.86617],[2.364789,48.86641],[2.364307,48.867309],[2.363872,48.867516],[2.364356,48.867745],[2.365618,48.868237],[2.366499,48.868518],[2.367611,48.868819],[2.369358,48.869485],[2.370077,48.869713],[2.371045,48.870002],[2.371544,48.870163],[2.372897,48.87057],[2.373502,48.870776],[2.374274,48.871108],[2.376223,48.871792],[2.376905,48.872048],[2.377852,48.871147],[2.37829,48.870775],[2.380537,48.86901],[2.382971,48.867178],[2.383289,48.866667],[2.383584,48.866267],[2.384308,48.865643],[2.385193,48.864853],[2.386065,48.864104],[2.387201,48.863086],[2.387442,48.862805],[2.388853,48.859871],[2.389437,48.858671],[2.389537,48.858488],[2.389704,48.85839],[2.390075,48.858288],[2.392167,48.857667],[2.392259,48.85763],[2.394345,48.85652],[2.396013,48.854331],[2.397074,48.852998],[2.398385,48.851319],[2.398506,48.851058],[2.398756,48.850338],[2.398931,48.849787],[2.399214,48.848948],[2.399246,48.848765],[2.399121,48.848098],[2.398188,48.848184],[2.397516,48.848235],[2.395958,48.848378],[2.394859,48.848542],[2.392997,48.848811],[2.387329,48.849679],[2.384708,48.850084],[2.384458,48.850127],[2.383631,48.850224],[2.381789,48.850359],[2.381391,48.850411],[2.380115,48.850455],[2.3788,48.850643],[2.376143,48.851304],[2.375494,48.851447],[2.373813,48.851874],[2.372318,48.852287],[2.371719,48.852487],[2.371217,48.852727],[2.370477,48.853189],[2.370228,48.853282],[2.369124,48.853166]]]}}