{"type":"Feature","properties":{"nom":"Paris 20e Arrondissement","code":"75120","codeDepartement":"75","codeRegion":"11","codesPostaux":["75020"],"population":185140},"geometry":{"type":"Polygon","coordinates":[[[2.415286,48.855178],[2.415476,48.854165],[2.415986,48.85136],[2.416326,48.849371],[2.416341,48.849234],[2.41635,48.8487],[2.416083,48.847258],[2.415971,48.846623],[2.413111,48.846871],[2.411445,48.847036],[2.411057,48.847047],[2.409736,48.847168],[2.406149,48.847466],[2.399121,48.848098],[2.399246,48.848765],[2.399214,48.848948],[2.398931,48.849787],[2.398756,48.850338],[2.398506,48.851058],[2.398385,48.851319],[2.397074,48.852998],[2.396013,48.854331],[2.394345,48.85652],[2.392259,48.85763],[2.392167,48.857667],[2.390075,48.858288],[2.389704,48.85839],[2.389537,48.858488],[2.389437,48.858671],[2.388853,48.859871],[2.387442,48.862805],[2.387201,48.863086],[2.386065,48.864104],[2.385193,48.864853],[2.384308,48.865643],[2.383584,48.866267],[2.383289,48.866667],[2.382971,48.867178],[2.380537,48.86901],[2.37829,48.870775],[2.377852,48.871147],[2.376905,48.872048],[2.377187,48.87217],[2.377637,48.872301],[2.379228,48.872715],[2.379834,48.872856],[2.380554,48.872989],[2.38191,48.873268],[2.382671,48.87341],[2.383163,48.873487],[2.384245,48.873626],[2.384836,48.873725],[2.385057,48.87379],[2.385388,48.873936],[2.386288,48.874399],[2.386728,48.874571],[2.387027,48.874642],[2.388252,48.874716],[2.388497,48.874765],[2.388924,48.87494],[2.389645,48.875303],[2.390457,48.875439],[2.391334,48.875459],[2.392262,48.875463],[2.392665,48.875415],[2.393548,48.875337],[2.394752,48.875269],[2.395368,48.875255],[2.39756,48.875437],[2.397922,48.875463],[2.398841,48.875479],[2.399208,48.875539],[2.402553,48.875996],[2.403643,48.876308],[2.404393,48.876531],[2.405247,48.876801],[2.406163,48.877055],[2.406583,48.877114],[2.406853,48.877183],[2.40748,48.877419],[2.408094,48.877627],[2.409552,48.878078],[2.409924,48.878207],[2.410702,48.878417],[2.41082,48.878436],[2.412453,48.876443],[2.413431,48.87314],[2.413646,48.872438],[2.41372,48.871558],[2.413812,48.870744],[2.413956,48.869216],[2.413961,48.867513],[2.414012,48.866486],[2.413979,48.865384],[2.413976,48.864978],[2.413951,48.864712],[2.414137,48.863373],[2.414266,48.862099],[2.41437,48.860649],[2.41442,48.860242],[2.414702,48.858704],[2.414947,48.857272],[2.415121,48.856157],[2.415286,48.855178]]]}}