{"type":"Feature","properties":{"nom":"Paris 7e Arrondissement","code":"75107","codeDepartement":"75","codeRegion":"11","codesPostaux":["75007"],"population":48015},"geometry":{"type":"Polygon","coordinates":[[[2.301737,48.863496],[2.302333,48.863526],[2.312376,48.863629],[2.315447,48.863718],[2.318678,48.863723],[2.320933,48.863019],[2.32798,48.860821],[2.331212,48.859679],[2.332916,48.859335],[2.332452,48.858531],[2.33327,48.858291],[2.332276,48.857044],[2.331667,48.856315],[2.331348,48.8559],[2.330733,48.855056],[2.330464,48.854473],[2.329876,48.853538],[2.329336,48.852639],[2.328659,48.852056],[2.328657,48.851868],[2.327274,48.851664],[2.326814,48.851581],[2.326877,48.851362],[2.32462,48.850417],[2.324162,48.850235],[2.322945,48.849659],[2.321899,48.849126],[2.320191,48.848235],[2.319421,48.847858],[2.318203,48.847395],[2.317186,48.847018],[2.316713,48.846863],[2.315361,48.846464],[2.313716,48.845943],[2.310495,48.847976],[2.308798,48.847579],[2.308218,48.847433],[2.307354,48.847133],[2.305863,48.848094],[2.302064,48.850524],[2.301228,48.851062],[2.300912,48.851176],[2.300546,48.851385],[2.299301,48.852194],[2.297376,48.853424],[2.296958,48.853702],[2.295785,48.854455],[2.295381,48.854707],[2.292936,48.856265],[2.291928,48.856924],[2.290943,48.857541],[2.29042,48.857827],[2.289696,48.858183],[2.290475,48.858831],[2.290749,48.859098],[2.292196,48.860254],[2.29369,48.861246],[2.294422,48.861622],[2.294865,48.861876],[2.29546,48.862117],[2.296871,48.862619],[2.297552,48.862839],[2.298589,48.863144],[2.299222,48.863284],[2.300144,48.863386],[2.301372,48.863487],[2.301737,48.863496]]]}}