{"type":"Feature","properties":{"nom":"Paris 3e Arrondissement","code":"75103","codeDepartement":"75","codeRegion":"11","codesPostaux":["75003"],"population":32179},"geometry":{"type":"Polygon","coordinates":[[[2.350164,48.861985],[2.350697,48.862925],[2.350955,48.863402],[2.351363,48.864164],[2.351965,48.865246],[2.352534,48.866235],[2.352971,48.867032],[2.353306,48.867619],[2.353723,48.86838],[2.354253,48.869324],[2.354957,48.869167],[2.355755,48.868976],[2.356496,48.868829],[2.359266,48.868407],[2.362216,48.867972],[2.36329,48.867816],[2.363872,48.867516],[2.364307,48.867309],[2.364789,48.86641],[2.36489,48.86617],[2.365198,48.865653],[2.366686,48.863203],[2.366748,48.863076],[2.366889,48.862473],[2.367252,48.860991],[2.368062,48.857603],[2.368229,48.856943],[2.368491,48.855805],[2.368279,48.855785],[2.366868,48.856025],[2.364941,48.856306],[2.364314,48.856458],[2.362861,48.8569],[2.361768,48.857244],[2.36077,48.857675],[2.359367,48.858327],[2.358772,48.858676],[2.357287,48.859809],[2.357017,48.860005],[2.356742,48.860147],[2.3535,48.861213],[2.350164,48.861985]]]}}