{"type":"Feature","properties":{"nom":"Paris 19e Arrondissement","code":"75119","codeDepartement":"75","codeRegion":"11","codesPostaux":["75019"],"population":178691},"geometry":{"type":"Polygon","coordinates":[[[2.41082,48.878436],[2.410702,48.878417],[2.409924,48.878207],[2.409552,48.878078],[2.408094,48.877627],[2.40748,48.877419],[2.406853,48.877183],[2.406583,48.877114],[2.406163,48.877055],[2.405247,48.876801],[2.404393,48.876531],[2.403643,48.876308],[2.402553,48.875996],[2.399208,48.875539],[2.398841,48.875479],[2.397922,48.875463],[2.39756,48.875437],[2.395368,48.875255],[2.394752,48.875269],[2.393548,48.875337],[2.392665,48.875415],[2.392262,48.875463],[2.391334,48.875459],[2.390457,48.875439],[2.389645,48.875303],[2.388924,48.87494],[2.388497,48.874765],[2.388252,48.874716],[2.387027,48.874642],[2.386728,48.874571],[2.386288,48.874399],[2.385388,48.873936],[2.385057,48.87379],[2.384836,48.873725],[2.384245,48.873626],[2.383163,48.873487],[2.382671,48.87341],[2.38191,48.873268],[2.380554,48.872989],[2.379834,48.872856],[2.379228,48.872715],[2.377637,48.872301],[2.377187,48.87217],[2.376905,48.872048],[2.373301,48.875285],[2.37029,48.877991],[2.370286,48.87859],[2.37025,48.880493],[2.370244,48.88128],[2.37022,48.881963],[2.370228,48.882467],[2.370168,48.882684],[2.369898,48.882952],[2.369557,48.883144],[2.369205,48.883406],[2.368828,48.883873],[2.368499,48.884065],[2.368228,48.884131],[2.367978,48.884156],[2.366335,48.884265],[2.364714,48.884366],[2.364801,48.884479],[2.365808,48.885544],[2.366553,48.886387],[2.366763,48.886644],[2.367133,48.887496],[2.367259,48.887862],[2.367561,48.888624],[2.368045,48.889608],[2.368124,48.889694],[2.368739,48.891029],[2.369541,48.892906],[2.369873,48.893626],[2.370013,48.893962],[2.370163,48.894181],[2.3705,48.894583],[2.370639,48.894704],[2.371792,48.895393],[2.371267,48.895798],[2.371176,48.895994],[2.370461,48.896575],[2.370385,48.896868],[2.370352,48.897368],[2.370312,48.898501],[2.370325,48.898917],[2.370262,48.899703],[2.370253,48.900259],[2.370333,48.900612],[2.370335,48.900943],[2.370237,48.901109],[2.37017,48.901556],[2.370302,48.901848],[2.372017,48.901885],[2.383566,48.902126],[2.38453,48.902148],[2.385582,48.901931],[2.388185,48.901382],[2.389332,48.901161],[2.390649,48.900927],[2.390837,48.900907],[2.391772,48.900383],[2.392379,48.900033],[2.39279,48.899812],[2.393434,48.899438],[2.395518,48.898265],[2.395613,48.898166],[2.396919,48.895861],[2.397609,48.894722],[2.397668,48.894606],[2.397882,48.893873],[2.397999,48.893529],[2.398236,48.89264],[2.398903,48.889681],[2.398942,48.889532],[2.399136,48.888532],[2.399252,48.885362],[2.400107,48.883821],[2.400582,48.883411],[2.401507,48.882631],[2.404576,48.881269],[2.405612,48.881007],[2.408068,48.88051],[2.40936,48.880256],[2.410682,48.878593],[2.41082,48.878436]]]}}