{"type":"Feature","properties":{"nom":"Paris 10e Arrondissement","code":"75110","codeDepartement":"75","codeRegion":"11","codesPostaux":["75010"],"population":83873},"geometry":{"type":"Polygon","coordinates":[[[2.363872,48.867516],[2.36329,48.867816],[2.362216,48.867972],[2.359266,48.868407],[2.356496,48.868829],[2.355755,48.868976],[2.354957,48.869167],[2.354253,48.869324],[2.352048,48.869822],[2.349099,48.870448],[2.347918,48.870688],[2.347897,48.871322],[2.347884,48.872474],[2.347901,48.874019],[2.34816,48.875484],[2.348227,48.875785],[2.348352,48.876083],[2.348996,48.877208],[2.348999,48.877278],[2.349135,48.877529],[2.349145,48.877886],[2.349201,48.878589],[2.3493,48.879103],[2.34953,48.87969],[2.349853,48.880643],[2.349836,48.881097],[2.349683,48.882422],[2.3496,48.88348],[2.349476,48.883615],[2.349465,48.883725],[2.349797,48.883758],[2.351101,48.883848],[2.353382,48.884013],[2.356255,48.884213],[2.358355,48.884367],[2.359013,48.884408],[2.359903,48.884411],[2.362494,48.884404],[2.364278,48.88439],[2.364714,48.884366],[2.366335,48.884265],[2.367978,48.884156],[2.368228,48.884131],[2.368499,48.884065],[2.368828,48.883873],[2.369205,48.883406],[2.369557,48.883144],[2.369898,48.882952],[2.370168,48.882684],[2.370228,48.882467],[2.37022,48.881963],[2.370244,48.88128],[2.37025,48.880493],[2.370286,48.87859],[2.37029,48.877991],[2.373301,48.875285],[2.376905,48.872048],[2.376223,48.871792],[2.374274,48.871108],[2.373502,48.870776],[2.372897,48.87057],[2.371544,48.870163],[2.371045,48.870002],[2.370077,48.869713],[2.369358,48.869485],[2.367611,48.868819],[2.366499,48.868518],[2.365618,48.868237],[2.364356,48.867745],[2.363872,48.867516]]]}}