{"type":"Feature","properties":{"nom":"Paris 4e Arrondissement","code":"75104","codeDepartement":"75","codeRegion":"11","codesPostaux":["75004"],"population":27332},"geometry":{"type":"Polygon","coordinates":[[[2.369124,48.853166],[2.367969,48.85073],[2.366454,48.847375],[2.366444,48.84731],[2.364455,48.846186],[2.362261,48.847812],[2.361058,48.848556],[2.35995,48.849114],[2.359308,48.849428],[2.358614,48.849697],[2.355502,48.850692],[2.354597,48.850986],[2.353935,48.851156],[2.353295,48.851265],[2.351245,48.851688],[2.350009,48.852052],[2.349024,48.852363],[2.347264,48.853154],[2.346674,48.853399],[2.345387,48.853809],[2.344634,48.854089],[2.344843,48.854281],[2.345837,48.855257],[2.346051,48.855535],[2.346476,48.85619],[2.347115,48.857241],[2.347329,48.857181],[2.347574,48.857359],[2.347851,48.857849],[2.34909,48.860076],[2.350164,48.861985],[2.3535,48.861213],[2.356742,48.860147],[2.357017,48.860005],[2.357287,48.859809],[2.358772,48.858676],[2.359367,48.858327],[2.36077,48.857675],[2.361768,48.857244],[2.362861,48.8569],[2.364314,48.856458],[2.364941,48.856306],[2.366868,48.856025],[2.368279,48.855785],[2.368491,48.855805],[2.368922,48.854041],[2.369124,48.853166]]]}}