{"type":"Feature","properties":{"nom":"Paris 5e Arrondissement","code":"75105","codeDepartement":"75","codeRegion":"11","codesPostaux":["75005"],"population":55252},"geometry":{"type":"Polygon","coordinates":[[[2.342086,48.838343],[2.340065,48.838779],[2.339695,48.838864],[2.338336,48.839221],[2.336657,48.839671],[2.33672,48.840107],[2.336771,48.840746],[2.337079,48.840783],[2.337256,48.840875],[2.337756,48.841755],[2.3382,48.842505],[2.338668,48.843363],[2.338983,48.843924],[2.340252,48.846289],[2.340482,48.84671],[2.341463,48.848379],[2.342632,48.850348],[2.342777,48.850637],[2.343188,48.851389],[2.344281,48.853757],[2.344634,48.854089],[2.345387,48.853809],[2.346674,48.853399],[2.347264,48.853154],[2.349024,48.852363],[2.350009,48.852052],[2.351245,48.851688],[2.353295,48.851265],[2.353935,48.851156],[2.354597,48.850986],[2.355502,48.850692],[2.358614,48.849697],[2.359308,48.849428],[2.35995,48.849114],[2.361058,48.848556],[2.362261,48.847812],[2.364455,48.846186],[2.366088,48.844968],[2.365127,48.844413],[2.364902,48.844113],[2.364158,48.843185],[2.363853,48.842748],[2.363181,48.841847],[2.362867,48.841398],[2.361851,48.840096],[2.361745,48.839941],[2.359798,48.839332],[2.355956,48.838091],[2.352678,48.837053],[2.351871,48.836805],[2.350688,48.836892],[2.348856,48.837097],[2.347007,48.837316],[2.34635,48.837459],[2.344492,48.837849],[2.342691,48.838212],[2.342086,48.838343]]]}}