{"type":"Feature","properties":{"nom":"Paris 18e Arrondissement","code":"75118","codeDepartement":"75","codeRegion":"11","codesPostaux":["75018"],"population":183127},"geometry":{"type":"Polygon","coordinates":[[[2.351984,48.901485],[2.355239,48.901548],[2.36562,48.901758],[2.367964,48.90181],[2.369103,48.901823],[2.370302,48.901848],[2.37017,48.901556],[2.370237,48.901109],[2.370335,48.900943],[2.370333,48.900612],[2.370253,48.900259],[2.370262,48.899703],[2.370325,48.898917],[2.370312,48.898501],[2.370352,48.897368],[2.370385,48.896868],[2.370461,48.896575],[2.371176,48.895994],[2.371267,48.895798],[2.371792,48.895393],[2.370639,48.894704],[2.3705,48.894583],[2.370163,48.894181],[2.370013,48.893962],[2.369873,48.893626],[2.369541,48.892906],[2.368739,48.891029],[2.368124,48.889694],[2.368045,48.889608],[2.367561,48.888624],[2.367259,48.887862],[2.367133,48.887496],[2.366763,48.886644],[2.366553,48.886387],[2.365808,48.885544],[2.364801,48.884479],[2.364714,48.884366],[2.364278,48.88439],[2.362494,48.884404],[2.359903,48.884411],[2.359013,48.884408],[2.358355,48.884367],[2.356255,48.884213],[2.353382,48.884013],[2.351101,48.883848],[2.349797,48.883758],[2.349465,48.883725],[2.347242,48.883451],[2.346909,48.883414],[2.34285,48.882619],[2.339802,48.882024],[2.3374,48.882386],[2.33259,48.883793],[2.330915,48.884204],[2.329541,48.88459],[2.328121,48.883707],[2.327875,48.883598],[2.327423,48.883508],[2.327278,48.883856],[2.326573,48.885368],[2.32601,48.886606],[2.325933,48.886744],[2.325607,48.887453],[2.325596,48.887508],[2.325898,48.888377],[2.326284,48.889575],[2.326583,48.890441],[2.326963,48.891608],[2.328255,48.895448],[2.328518,48.896189],[2.329146,48.898098],[2.329467,48.899023],[2.329852,48.900199],[2.330147,48.901044],[2.331996,48.901078],[2.337938,48.901208],[2.339771,48.901245],[2.344985,48.901345],[2.351984,48.901485]]]}}