{"type":"Feature","properties":{"nom":"Paris 16e Arrondissement","code":"75116","codeDepartement":"75","codeRegion":"11","codesPostaux":["75016","75116"],"population":159386},"geometry":{"type":"Polygon","coordinates":[[[2.245704,48.876459],[2.24625,48.876228],[2.246533,48.876142],[2.254817,48.874081],[2.25541,48.874264],[2.258467,48.880387],[2.258861,48.880333],[2.264611,48.879622],[2.277487,48.877968],[2.27947,48.878532],[2.279949,48.878573],[2.282006,48.877916],[2.28451,48.877122],[2.290454,48.875231],[2.292999,48.874427],[2.294249,48.874036],[2.295032,48.873773],[2.295543,48.873303],[2.29635,48.872324],[2.297217,48.871292],[2.297501,48.870939],[2.298867,48.868644],[2.299254,48.867454],[2.299838,48.865537],[2.299856,48.865261],[2.299842,48.864987],[2.300298,48.865008],[2.301635,48.864491],[2.301737,48.863496],[2.301372,48.863487],[2.300144,48.863386],[2.299222,48.863284],[2.298589,48.863144],[2.297552,48.862839],[2.296871,48.862619],[2.29546,48.862117],[2.294865,48.861876],[2.294422,48.861622],[2.29369,48.861246],[2.292196,48.860254],[2.290749,48.859098],[2.290475,48.858831],[2.289696,48.858183],[2.288954,48.85749],[2.288513,48.857021],[2.288379,48.856755],[2.288207,48.856134],[2.288074,48.855957],[2.287837,48.855764],[2.287311,48.855389],[2.282845,48.852244],[2.281217,48.851101],[2.280569,48.850626],[2.279575,48.849938],[2.278021,48.848888],[2.277029,48.848109],[2.276057,48.847248],[2.275464,48.846704],[2.274473,48.845655],[2.273994,48.845176],[2.27191,48.842993],[2.271225,48.842299],[2.268291,48.839213],[2.26674,48.837565],[2.266032,48.836838],[2.265076,48.835968],[2.263558,48.83464],[2.262792,48.833923],[2.261492,48.83407],[2.258503,48.834419],[2.256995,48.834601],[2.256538,48.834643],[2.255144,48.83481],[2.254831,48.835184],[2.253547,48.836676],[2.25239,48.838036],[2.252011,48.838493],[2.251915,48.838641],[2.251709,48.838822],[2.251309,48.84206],[2.251216,48.84289],[2.251735,48.843974],[2.251909,48.844291],[2.252347,48.845191],[2.252478,48.845486],[2.250767,48.845531],[2.250516,48.845555],[2.249867,48.84573],[2.245935,48.846745],[2.245515,48.846856],[2.243235,48.847431],[2.242362,48.847658],[2.241761,48.848135],[2.241516,48.848408],[2.2405,48.849316],[2.240184,48.849571],[2.23977,48.849832],[2.23918,48.850042],[2.238966,48.850094],[2.237379,48.850435],[2.235663,48.850818],[2.233576,48.851304],[2.233194,48.85138],[2.232297,48.851587],[2.231537,48.85174],[2.230011,48.852065],[2.229228,48.852224],[2.226594,48.852812],[2.226233,48.852962],[2.225912,48.853035],[2.224219,48.853517],[2.224269,48.855088],[2.224315,48.855696],[2.224407,48.856154],[2.224518,48.856538],[2.22532,48.858516],[2.22567,48.859405],[2.225968,48.860015],[2.226992,48.862],[2.227181,48.862385],[2.227361,48.862829],[2.227749,48.863844],[2.228139,48.864922],[2.228377,48.86538],[2.229797,48.867072],[2.230181,48.867504],[2.230659,48.86808],[2.231376,48.868728],[2.231736,48.869069],[2.232175,48.869285],[2.232868,48.869585],[2.233702,48.869898],[2.235576,48.870523],[2.236657,48.870821],[2.237436,48.871022],[2.238434,48.871311],[2.239593,48.871705],[2.24035,48.872033],[2.240945,48.872342],[2.241237,48.87251],[2.241856,48.872901],[2.242723,48.873543],[2.243269,48.874017],[2.243948,48.874712],[2.245157,48.875904],[2.245704,48.876459]]]}}