{"type":"Feature","properties":{"nom":"Paris 12e Arrondissement","code":"75112","codeDepartement":"75","codeRegion":"11","codesPostaux":["75012"],"population":138024},"geometry":{"type":"Polygon","coordinates":[[[2.467319,48.839099],[2.467787,48.838577],[2.468076,48.838303],[2.468547,48.837902],[2.469236,48.837289],[2.469473,48.837048],[2.469662,48.836788],[2.469803,48.836547],[2.469851,48.836399],[2.469834,48.835798],[2.469724,48.835195],[2.469483,48.834547],[2.469197,48.83412],[2.468891,48.833797],[2.468485,48.833507],[2.467882,48.833204],[2.467329,48.832952],[2.466939,48.832749],[2.466569,48.832521],[2.466273,48.832296],[2.465823,48.83187],[2.465575,48.831555],[2.465584,48.831471],[2.465426,48.83132],[2.465273,48.831018],[2.465077,48.830568],[2.464806,48.829684],[2.464702,48.829277],[2.46465,48.828956],[2.464608,48.828535],[2.464662,48.827623],[2.465095,48.827541],[2.465232,48.827667],[2.465434,48.827567],[2.466178,48.827328],[2.465731,48.826226],[2.465503,48.825586],[2.46532,48.824979],[2.465189,48.824957],[2.465299,48.824705],[2.465044,48.824084],[2.464026,48.822303],[2.463725,48.821678],[2.463403,48.821149],[2.462867,48.820178],[2.462697,48.819369],[2.462529,48.819246],[2.462696,48.81906],[2.461205,48.818355],[2.46053,48.818027],[2.459541,48.817571],[2.459115,48.817365],[2.459414,48.816848],[2.459119,48.816997],[2.458717,48.817034],[2.458054,48.81702],[2.455919,48.817082],[2.455102,48.817076],[2.453452,48.817149],[2.452526,48.817317],[2.451315,48.817619],[2.450558,48.817773],[2.449671,48.817893],[2.448935,48.81793],[2.447786,48.817966],[2.446618,48.81793],[2.445958,48.817928],[2.444713,48.817897],[2.444181,48.817875],[2.443731,48.817892],[2.442326,48.817904],[2.441855,48.817944],[2.441012,48.818093],[2.440137,48.818259],[2.439854,48.818291],[2.4394,48.81828],[2.437329,48.818177],[2.437442,48.819111],[2.437345,48.819187],[2.436925,48.819365],[2.436332,48.819543],[2.436028,48.819593],[2.434902,48.819669],[2.434655,48.819557],[2.434144,48.819216],[2.434262,48.819911],[2.434288,48.820158],[2.434108,48.820297],[2.433094,48.820991],[2.43248,48.821426],[2.43289,48.821693],[2.432634,48.821901],[2.432195,48.82162],[2.430371,48.822877],[2.430628,48.823157],[2.429861,48.823432],[2.429227,48.823622],[2.428768,48.823733],[2.427958,48.8239],[2.427421,48.823987],[2.426575,48.824097],[2.425481,48.824176],[2.424654,48.824191],[2.42345,48.824158],[2.422878,48.82413],[2.421826,48.824059],[2.420678,48.824048],[2.419963,48.82408],[2.419387,48.824156],[2.418603,48.824312],[2.417763,48.824531],[2.417131,48.824649],[2.416513,48.824736],[2.415976,48.824777],[2.415083,48.824782],[2.413785,48.824723],[2.413111,48.824718],[2.412623,48.824737],[2.411757,48.824803],[2.410907,48.82494],[2.41027,48.825087],[2.409955,48.825183],[2.409175,48.825502],[2.408675,48.825767],[2.408085,48.826112],[2.407589,48.82643],[2.40655,48.827191],[2.405816,48.827797],[2.405376,48.828134],[2.404994,48.828403],[2.403814,48.82906],[2.403551,48.829175],[2.402871,48.829415],[2.402237,48.82959],[2.400679,48.829095],[2.399775,48.828791],[2.399205,48.828626],[2.397894,48.828329],[2.396843,48.828054],[2.395707,48.827727],[2.395179,48.827645],[2.39434,48.827539],[2.393993,48.827401],[2.392762,48.826855],[2.391022,48.826117],[2.390072,48.825692],[2.388512,48.826744],[2.387151,48.82787],[2.384305,48.830311],[2.380999,48.832905],[2.378358,48.835023],[2.375322,48.837608],[2.37355,48.839329],[2.371739,48.840732],[2.366088,48.844968],[2.364455,48.846186],[2.366444,48.84731],[2.366454,48.847375],[2.367969,48.85073],[2.369124,48.853166],[2.370228,48.853282],[2.370477,48.853189],[2.371217,48.852727],[2.371719,48.852487],[2.372318,48.852287],[2.373813,48.851874],[2.375494,48.851447],[2.376143,48.851304],[2.3788,48.850643],[2.380115,48.850455],[2.381391,48.850411],[2.381789,48.850359],[2.383631,48.850224],[2.384458,48.850127],[2.384708,48.850084],[2.387329,48.849679],[2.392997,48.848811],[2.394859,48.848542],[2.395958,48.848378],[2.397516,48.848235],[2.398188,48.848184],[2.399121,48.848098],[2.406149,48.847466],[2.409736,48.847168],[2.411057,48.847047],[2.411445,48.847036],[2.413111,48.846871],[2.415971,48.846623],[2.415768,48.845445],[2.415664,48.844996],[2.415299,48.84385],[2.41485,48.842379],[2.414248,48.840488],[2.414047,48.83976],[2.413577,48.838278],[2.412852,48.836217],[2.412246,48.834539],[2.411472,48.833929],[2.412587,48.833779],[2.413505,48.833723],[2.413921,48.833712],[2.414633,48.833728],[2.41547,48.833794],[2.415968,48.833864],[2.416608,48.833997],[2.417338,48.834189],[2.41935,48.834832],[2.421016,48.835398],[2.422139,48.835798],[2.421801,48.836348],[2.421586,48.836756],[2.421447,48.837219],[2.421254,48.838161],[2.421062,48.838891],[2.42093,48.839329],[2.420719,48.839806],[2.420475,48.840314],[2.420304,48.840564],[2.420133,48.840753],[2.419776,48.841082],[2.419539,48.841449],[2.419394,48.841997],[2.419357,48.842498],[2.419469,48.842692],[2.419735,48.84294],[2.419849,48.843102],[2.41986,48.843456],[2.420115,48.843601],[2.421848,48.844437],[2.422225,48.84423],[2.422435,48.844058],[2.422653,48.843837],[2.422966,48.843417],[2.423283,48.842912],[2.423492,48.842656],[2.423948,48.842196],[2.424347,48.84195],[2.424535,48.841886],[2.42492,48.841808],[2.425819,48.841715],[2.427575,48.841571],[2.42813,48.841528],[2.43064,48.841299],[2.431533,48.841228],[2.432249,48.841161],[2.432916,48.841114],[2.433545,48.841046],[2.43367,48.841198],[2.435777,48.84102],[2.437184,48.840893],[2.437282,48.841326],[2.437958,48.844664],[2.439489,48.844521],[2.44052,48.84444],[2.440616,48.844892],[2.440801,48.844879],[2.440864,48.845252],[2.440681,48.845247],[2.440758,48.845964],[2.441832,48.845916],[2.444136,48.845878],[2.444921,48.845869],[2.446646,48.845802],[2.446497,48.844968],[2.446969,48.84494],[2.447853,48.844863],[2.448654,48.844781],[2.449527,48.844677],[2.450814,48.844502],[2.451866,48.844329],[2.452621,48.844217],[2.453503,48.844101],[2.455169,48.843919],[2.456779,48.843708],[2.458615,48.843428],[2.459873,48.843181],[2.461008,48.842938],[2.461794,48.842731],[2.462446,48.842532],[2.462848,48.84239],[2.463741,48.842023],[2.464181,48.841809],[2.464903,48.841406],[2.465411,48.841066],[2.465699,48.840836],[2.466164,48.840423],[2.466639,48.839925],[2.466929,48.839596],[2.467319,48.839099]]]}}